NORAD_CAT_ID,OBJECT_NAME,OBJECT_TYPE,EPOCH,MEAN_MOTION,ECCENTRICITY,INCLINATION,RA_OF_ASC_NODE,ARG_OF_PERICENTER,MEAN_ANOMALY,BSTAR,MEAN_MOTION_DOT,MEAN_MOTION_DDOT,TLE_LINE0,TLE_LINE1,TLE_LINE2,SEMIMAJOR_AXIS,PERIOD,APOGEE,PERIGEE,DECAYED
55409.0,STARLINK-5047,PAYLOAD,2024-08-08 19:50:30,14.98325209,0.0003067,70.0001,81.5967,269.3889,90.6919,8.7544e-05,9.52e-06,0.0,0 STARLINK-5047,1 55409U 23014U   24221.82674021  .00000952  00000-0  87544-4 0  9992,2 55409  70.0001  81.5967 0003067 269.3889  90.6919 14.98325209 84559,6950.208,96.107,574.204,569.941,0.0
55409.0,STARLINK-5047,PAYLOAD,2024-08-08 21:26:38,14.98328612,0.0002923,70.0001,81.4285,267.0593,93.0232,3.3282e-05,3.04e-06,0.0,0 STARLINK-5047,1 55409U 23014U   24221.89349922  .00000304  00000-0  33282-4 0  9999,2 55409  70.0001  81.4285 0002923 267.0593  93.0232 14.98328612 85500,6950.197,96.107,574.094,570.031,0.0
55409.0,STARLINK-5047,PAYLOAD,2024-08-09 00:38:54,14.98330738,0.0002856,70.0005,81.0931,268.9058,91.1774,8.945e-05,9.74e-06,0.0,0 STARLINK-5047,1 55409U 23014U   24222.02701639  .00000974  00000-0  89450-4 0  9993,2 55409  70.0005  81.0931 0002856 268.9058  91.1774 14.98330738 84588,6950.191,96.107,574.041,570.071,0.0
55409.0,STARLINK-5047,PAYLOAD,2024-08-09 21:28:38,14.9833813,0.0002784,70.0001,78.9038,262.3345,97.7498,4.598e-05,4.56e-06,0.0,0 STARLINK-5047,1 55409U 23014U   24222.89489154  .00000456  00000-0  45980-4 0  9998,2 55409  70.0001  78.9038 0002784 262.3345  97.7498 14.98338130 85652,6950.168,96.106,573.968,570.098,0.0
55409.0,STARLINK-5047,PAYLOAD,2024-08-10 00:40:54,14.98326098,0.0002658,70.0003,78.5677,263.1919,96.8937,0.00036756,4.295e-05,0.0,0 STARLINK-5047,1 55409U 23014U   24223.02841285  .00004295  00000-0  36756-3 0  9996,2 55409  70.0003  78.5677 0002658 263.1919  96.8937 14.98326098 84731,6950.205,96.107,573.917,570.223,0.0
55409.0,STARLINK-5047,PAYLOAD,2024-08-10 13:29:59,14.98332295,0.0002754,70.0007,77.2227,259.039,101.0459,9.2764e-05,1.014e-05,0.0,0 STARLINK-5047,1 55409U 23014U   24223.56249155  .00001014  00000-0  92764-4 0  9991,2 55409  70.0007  77.2227 0002754 259.0390 101.0459 14.98332295 85753,6950.186,96.107,573.965,570.137,0.0
55409.0,STARLINK-5047,PAYLOAD,2024-08-10 21:30:39,14.98332259,0.0002702,70.0007,76.3798,262.3844,97.7008,9.4416e-05,1.034e-05,0.0,0 STARLINK-5047,1 55409U 23014U   24223.89629183  .00001034  00000-0  94416-4 0  9998,2 55409  70.0007  76.3798 0002702 262.3844  97.7008 14.98332259 85807,6950.186,96.107,573.929,570.173,0.0
55409.0,STARLINK-5047,PAYLOAD,2024-08-11 00:42:55,14.98334656,0.0002692,70.0008,76.0432,263.1154,96.9699,0.00011773,1.312e-05,0.0,0 STARLINK-5047,1 55409U 23014U   24224.02980964  .00001312  00000-0  11773-3 0  9994,2 55409  70.0008  76.0432 0002692 263.1154  96.9699 14.98334656 84888,6950.178,96.107,573.914,570.173,0.0
55409.0,STARLINK-5047,PAYLOAD,2024-08-11 13:32:00,14.98318925,0.0002776,70.0011,74.6961,260.0788,100.0058,0.0003074,3.576e-05,0.0,0 STARLINK-5047,1 55409U 23014U   24224.56389260  .00003576  00000-0  30740-3 0  9994,2 55409  70.0011  74.6961 0002776 260.0788 100.0058 14.98318925 84961,6950.227,96.108,574.022,570.163,0.0
55409.0,STARLINK-5047,PAYLOAD,2024-08-11 21:32:40,14.98325122,0.0002813,70.0009,73.8544,259.067,101.0172,0.00015461,1.752e-05,0.0,0 STARLINK-5047,1 55409U 23014U   24224.89769426  .00001752  00000-0  15461-3 0  9993,2 55409  70.0009  73.8544 0002813 259.0670 101.0172 14.98325122 85951,6950.208,96.107,574.028,570.118,0.0
55409.0,STARLINK-5047,PAYLOAD,2024-08-12 00:43:07,14.99775125,0.000393,70.0009,73.5137,247.9881,112.0862,0.015967,0.00203549,0.0,0 STARLINK-5047,1 55409U 23014U   24225.02995207  .00203549  00000-0  15967-1 0  9994,2 55409  70.0009  73.5137 0003930 247.9881 112.0862 14.99775125 85037,6945.728,96.014,570.322,564.863,0.0
55409.0,STARLINK-5047,PAYLOAD,2024-08-12 14:00:01,14.983281,0.0003117,70.0011,72.124,266.36,191.1296,0.0034138,0.00040877,0.0,0 STARLINK-5047,1 55409U 23014U   24225.58335648  .00040877  00000-0  34138-2 0  9997,2 55409  70.0011  72.1240 0003117 266.3600 191.1296 14.98328100 85126,6950.199,96.107,574.23,569.897,0.0
55409.0,STARLINK-5047,PAYLOAD,2024-08-12 19:58:32,14.98340971,0.0003241,69.9991,71.496,270.452,89.6267,0.00010914,1.21e-05,0.0,0 STARLINK-5047,1 55409U 23014U   24225.83231973  .00001210  00000-0  10914-3 0  9996,2 55409  69.9991  71.4960 0003241 270.4520  89.6267 14.98340971 86092,6950.159,96.106,574.277,569.771,0.0
55409.0,STARLINK-5047,PAYLOAD,2024-08-13 07:11:29,14.98319513,0.0002635,70.0023,70.3171,286.1485,73.9383,-0.00013892,-1.75e-05,0.0,0 STARLINK-5047,1 55409U 23014U   24226.29964953 -.00001750  00000-0 -13892-3 0  9997,2 55409  70.0023  70.3171 0002635 286.1485  73.9383 14.98319513 85220,6950.225,96.108,573.922,570.259,0.0
55409.0,STARLINK-5047,PAYLOAD,2024-08-13 20:00:37,14.98289256,0.0003195,69.9986,68.9708,274.7119,85.3675,-0.00041008,-4.977e-05,0.0,0 STARLINK-5047,1 55409U 23014U   24226.83376319 -.00004977  00000-0 -41008-3 0  9994,2 55409  69.9986  68.9708 0003195 274.7119  85.3675 14.98289256 85303,6950.319,96.11,574.405,569.963,0.0
55409.0,STARLINK-5047,PAYLOAD,2024-08-14 07:13:18,14.98786273,0.0006397,69.9996,67.7922,280.8162,79.2277,-0.0090149,-0.00107333,0.0,0 STARLINK-5047,1 55409U 23014U   24227.30091021 -.00107333  00000-0 -90149-2 0  9990,2 55409  69.9996  67.7922 0006397 280.8162  79.2277 14.98786273 85370,6948.782,96.078,575.092,566.202,0.0
55409.0,STARLINK-5047,PAYLOAD,2024-08-14 22:00:00,14.98333931,0.0003369,70.0014,66.241,284.3113,155.3362,0.0026742,0.00031965,0.0,0 STARLINK-5047,1 55409U 23014U   24227.91667824  .00031965  00000-0  26742-2 0  9990,2 55409  70.0014  66.2410 0003369 284.3113 155.3362 14.98333931 85472,6950.181,96.107,574.387,569.704,0.0
55409.0,STARLINK-5047,PAYLOAD,2024-08-14 23:14:53,14.98307258,0.0003565,70.0009,66.107,284.6918,75.3845,0.00046786,5.491e-05,0.0,0 STARLINK-5047,1 55409U 23014U   24227.96867960  .00005491  00000-0  46786-3 0  9994,2 55409  70.0009  66.1070 0003565 284.6918  75.3845 14.98307258 85471,6950.263,96.108,574.606,569.65,0.0
55409.0,STARLINK-5047,PAYLOAD,2024-08-15 20:04:38,14.98314678,0.0003051,70.0004,63.9196,283.7544,76.3275,0.00068442,8.08e-05,0.0,0 STARLINK-5047,1 55409U 23014U   24228.83655251  .00008080  00000-0  68442-3 0  9999,2 55409  70.0004  63.9196 0003051 283.7544  76.3275 14.98314678 85602,6950.24,96.108,574.226,569.985,0.0
55409.0,STARLINK-5047,PAYLOAD,2024-08-15 21:40:46,14.98318391,0.0003216,69.9997,63.7531,280.3824,79.6972,0.00053515,6.296e-05,0.0,0 STARLINK-5047,1 55409U 23014U   24228.90331479  .00006296  00000-0  53515-3 0  9992,2 55409  69.9997  63.7531 0003216 280.3824  79.6972 14.98318391 86559,6950.229,96.108,574.329,569.859,0.0
55409.0,STARLINK-5047,PAYLOAD,2024-08-15 23:16:54,14.98318791,0.0003233,69.9995,63.5847,280.32,79.7594,0.00052121,6.13e-05,0.0,0 STARLINK-5047,1 55409U 23014U   24228.97007538  .00006130  00000-0  52121-3 0  9994,2 55409  69.9995  63.5847 0003233 280.3200  79.7594 14.98318791 86568,6950.228,96.108,574.34,569.846,0.0
55409.0,STARLINK-5047,PAYLOAD,2024-08-16 21:42:45,14.98354926,0.0003405,69.9992,61.2278,281.8314,78.2463,0.00016553,1.884e-05,0.0,0 STARLINK-5047,1 55409U 23014U   24229.90469493  .00001884  00000-0  16553-3 0  9990,2 55409  69.9992  61.2278 0003405 281.8314  78.2463 14.98354926 86706,6950.116,96.105,574.347,569.614,0.0
55409.0,STARLINK-5047,PAYLOAD,2024-08-16 23:18:53,14.98356162,0.0003381,69.9993,61.0596,281.7536,78.3243,0.00018185,2.079e-05,0.0,0 STARLINK-5047,1 55409U 23014U   24229.97145304  .00002079  00000-0  18185-3 0  9999,2 55409  69.9993  61.0596 0003381 281.7536  78.3243 14.98356162 85773,6950.112,96.105,574.327,569.627,0.0
55409.0,STARLINK-5047,PAYLOAD,2024-08-17 12:07:58,14.98362583,0.0002776,69.9994,59.7179,279.7951,80.2895,-0.00015878,-1.989e-05,0.0,0 STARLINK-5047,1 55409U 23014U   24230.50553549 -.00001989  00000-0 -15878-3 0  9991,2 55409  69.9994  59.7179 0002776 279.7951  80.2895 14.98362583 85858,6950.092,96.105,573.886,570.028,0.0
55409.0,STARLINK-5047,PAYLOAD,2024-08-17 13:44:06,14.983385,0.0003094,70.0027,59.5454,278.3982,81.6826,5.0438e-05,5.09e-06,0.0,0 STARLINK-5047,1 55409U 23014U   24230.57229878  .00000509  00000-0  50438-4 0  9990,2 55409  70.0027  59.5454 0003094 278.3982  81.6826 14.98338500 85867,6950.167,96.106,574.182,569.881,0.0
55409.0,STARLINK-5047,PAYLOAD,2024-08-17 21:44:46,14.98346222,0.0003293,70.0023,58.7046,275.822,84.2564,-0.00012501,-1.585e-05,0.0,0 STARLINK-5047,1 55409U 23014U   24230.90609610 -.00001585  00000-0 -12501-3 0  9998,2 55409  70.0023  58.7046 0003293 275.8220  84.2564 14.98346222 86857,6950.143,96.106,574.296,569.719,0.0
55409.0,STARLINK-5047,PAYLOAD,2024-08-17 23:20:54,14.983367,0.0003248,70.0031,58.5346,289.1403,70.9405,6.5853e-05,6.93e-06,0.0,0 STARLINK-5047,1 55409U 23014U   24230.97285810  .00000693  00000-0  65853-4 0  9993,2 55409  70.0031  58.5346 0003248 289.1403  70.9405 14.98336700 86865,6950.172,96.107,574.295,569.78,0.0
55409.0,STARLINK-5047,PAYLOAD,2024-08-18 20:10:39,14.98221704,0.0002672,69.9997,56.3461,267.0954,92.9899,0.0020545,0.00024438,0.0,0 STARLINK-5047,1 55409U 23014U   24231.84073684  .00024438  00000-0  20545-2 0  9994,2 55409  69.9997  56.3461 0002672 267.0954  92.9899 14.98221704 86052,6950.528,96.114,574.25,570.536,0.0
55409.0,STARLINK-5047,PAYLOAD,2024-08-18 21:46:48,14.98184938,0.0002801,69.9998,56.178,261.7489,98.3352,0.0027139,0.00032317,0.0,0 STARLINK-5047,1 55409U 23014U   24231.90750335  .00032317  00000-0  27139-2 0  9997,2 55409  69.9998  56.1780 0002801 261.7489  98.3352 14.98184938 87000,6950.642,96.116,574.453,570.56,0.0
55409.0,STARLINK-5047,PAYLOAD,2024-08-19 12:11:27,14.98692913,0.0010622,69.9996,54.6613,274.6423,85.3523,0.0038413,0.00046527,0.0,0 STARLINK-5047,1 55409U 23014U   24232.50795504  .00046527  00000-0  38413-2 0  9996,2 55409  69.9996  54.6613 0010622 274.6423  85.3523 14.98692913 86155,6949.071,96.084,578.317,563.555,0.0
